[
  "TORO                    \r\n1 60530U 24149BQ  26198.79714578  .00000612  00000+0  58830-4 0  9994\r\n2 60530  97.6772 272.8935 0001173 105.9715 254.1636 14.96519717104530\r\n",
  "TORO3                   \r\n1 68481U 26067BT  26198.81227674  .00000257  00000+0  30726-4 0  9996\r\n2 68481  97.7689 156.7430 0002317 179.5743 180.5478 14.92168425 16293\r\n",
  "SATORO-T3               \r\n1 64589U 25135BP  26198.89647530  .00000577  00000+0  58854-4 0  9998\r\n2 64589  97.7740 313.1155 0003993 215.6885 144.4069 14.94441238 58490\r\n",
  "GEMINI-POLLUX           \r\n1 69000U 26100W   26198.50301693  .00000747  00000+0  78484-4 0  9999\r\n2 69000  97.7288  95.4134 0002244 106.7394 253.4071 14.92327979 11227\r\n",
  "FORMOSAT-2 (ROCSAT 2)   \r\n1 28254U 04018A   26198.87633222 -.00000264  00000+0 -14705-3 0  9996\r\n2 28254  98.8458 165.4166 0001073 192.9983 196.4452 14.01250792133050\r\n",
  "FORMOSAT-3 FM6          \r\n1 29047U 06011A   26198.15289238  .00000191  00000+0  86767-4 0  9992\r\n2 29047  71.9760 249.9206 0048566 188.1788 171.8564 14.31419889 58694\r\n",
  "FORMOSAT-3 FM1          \r\n1 29048U 06011B   26198.91564036  .00000155  00000+0  73544-4 0  9998\r\n2 29048  71.9652 156.7403 0041203 149.4434 210.9117 14.31408775 61176\r\n",
  "FORMOSAT-3 FM5          \r\n1 29049U 06011C   26198.82578653  .00000171  00000+0  79659-4 0  9990\r\n2 29049  72.0198 341.2268 0033193 156.2402 204.0278 14.31425447 57053\r\n",
  "FORMOSAT-3 FM3          \r\n1 29050U 06011D   26198.12055678  .00000457  00000+0  89618-4 0  9995\r\n2 29050  72.0119 247.4534 0044694 232.0943 127.6169 14.67017498 80767\r\n",
  "FORMOSAT-3 FM4          \r\n1 29051U 06011E   26198.08431598  .00000141  00000+0  66970-4 0  9996\r\n2 29051  72.0021 240.2300 0064806  37.2762 323.2847 14.31558434 59543\r\n",
  "FORMOSAT-3 FM2          \r\n1 29052U 06011F   26198.78037201  .00000199  00000+0  89271-4 0  9999\r\n2 29052  72.0339 319.7148 0037276 107.9304 252.5904 14.31640177 57166\r\n",
  "PACE                    \r\n1 40022U 14033N   26198.92374158  .00002243  00000+0  13830-3 0  9992\r\n2 40022  98.1246 205.6898 0007917 110.2551 249.9529 15.11084847657677\r\n",
  "FORMOSAT-5              \r\n1 42920U 17049A   26198.94833668  .00000033  00000+0  19520-4 0  9997\r\n2 42920  98.2245 273.5734 0011141 355.3173   4.7916 14.50908234471134\r\n",
  "FORMOSAT 7-3            \r\n1 44343U 19036E   26198.71459501  .00002420  00000+0  12441-3 0  9997\r\n2 44343  23.9999 328.4011 0000241 329.4553  30.5937 15.10005458387866\r\n",
  "FORMOSAT 7-1            \r\n1 44349U 19036L   26198.98398725  .00001306  00000+0  85886-4 0  9998\r\n2 44349  23.9963 184.7505 0000825 156.2752 203.7787 14.96617870389273\r\n",
  "FORMOSAT 7-4            \r\n1 44350U 19036M   26198.80656348  .00001196  00000+0  76477-4 0  9992\r\n2 44350  23.9971 248.0585 0001067 170.9242 189.1279 14.96614687388660\r\n",
  "FORMOSAT 7-2            \r\n1 44351U 19036N   26198.49556829  .00001347  00000+0  89426-4 0  9997\r\n2 44351  23.9986 304.4702 0000613 149.3256 210.7280 14.96614279388138\r\n",
  "FORMOSAT 7-6            \r\n1 44353U 19036Q   26198.96185294  .00001381  00000+0  92345-4 0  9997\r\n2 44353  23.9970 122.1321 0001353 100.1152 259.9501 14.96618742386438\r\n",
  "FORMOSAT 7-5            \r\n1 44358U 19036V   26198.93933704  .00001461  00000+0  99321-4 0  9996\r\n2 44358  23.9992  61.0382 0000298 152.2086 207.8431 14.96598573386967\r\n",
  "FORMOSAT-7R (TRITON)    \r\n1 58017U 23155B   26198.77125663  .00000809  00000+0  87128-4 0  9996\r\n2 58017  97.8351 279.9510 0001415  50.3186 309.8157 14.91198278150787\r\n",
  "NIGHTJAR                \r\n1 60535U 24149BV  26198.49592861  .00002193  00000+0  18498-3 0  9996\r\n2 60535  97.6844 274.7779 0002744  91.6768 268.4769 14.99179728147412\r\n",
  "IRIS-F3                 \r\n1 62619U 25009L   26198.45686102  .00006596  00000+0  24852-3 0  9997\r\n2 62619  97.4038 279.0677 0005867 200.8812 159.2189 15.27403711 83447\r\n",
  "IRIS-F2                 \r\n1 62684U 25009CD  26197.75349705  .00007983  00000+0  30018-3 0  9998\r\n2 62684  97.3884 277.2397 0004528 228.9690 131.1158 15.27408015140973\r\n",
  "FORMOSAT-8A             \r\n1 66666U 25276A   26198.67651344  .00000842  00000+0  71048-4 0  9991\r\n2 66666  97.6547 272.4603 0005920 121.6664 238.5139 15.00756908 34634\r\n",
  "LILIUM-2                \r\n1 66679U 25276P   26198.69288939  .00001198  00000+0  61998-4 0  9991\r\n2 66679  97.4143 271.1255 0004464 255.0727 105.0013 15.18104919 35022\r\n",
  "BLACK KITE-1            \r\n1 66741U 25276CD  26198.18141936  .00003904  00000+0  17918-3 0  9999\r\n2 66741  97.4230 271.4659 0004416 231.5159 128.5681 15.20994648 32280\r\n",
  "T.MICROSAT-1            \r\n1 66766U 25276DE  26198.93138144  .00002926  00000+0  13461-3 0  9998\r\n2 66766  97.4149 272.1824 0002225  97.8618 262.2871 15.21114077 35110\r\n",
  "LILIUM-3                \r\n1 66770U 25276DJ  26198.77880789  .00001252  00000+0  61888-4 0  9992\r\n2 66770  97.4234 272.0320 0003232 123.0975 237.0571 15.19648193 35077\r\n",
  "T.MICROSAT-2            \r\n1 68433U 26067T   26198.85376939  .00002566  00000+0  13077-3 0  9990\r\n2 68433  97.4586 156.7653 0004508 335.4675  24.6343 15.17663875 16589\r\n",
  "PARUS-6U1               \r\n1 68456U 26067AS  26198.84693196  .00002910  00000+0  14723-3 0  9993\r\n2 68456  97.4571 156.7482 0004436 338.5361  21.5686 15.17809749 16582\r\n",
  "BLACK KITE-2            \r\n1 68474U 26067BL  26198.85021289  .00001140  00000+0  11596-3 0  9991\r\n2 68474  97.7564 156.6897 0003384 116.8521 243.3045 14.92706733 16306\r\n",
  "PEARL-1B                \r\n1 68980U 26100A   26198.98957910  .00001027  00000+0  11025-3 0  9995\r\n2 68980  97.7328  95.7300 0008582  52.9542 307.2460 14.90671488 11274\r\n",
  "PEARL-1A                \r\n1 68990U 26100L   26198.49879730  .00000521  00000+0  58140-4 0  9993\r\n2 68990  97.7275  95.2539 0006883  69.5123 290.6834 14.91060700 11210\r\n"
]